{
  "type": "FeatureCollection",
  "generator": "overpass-turbo",
  "copyright": "The data included in this document is from www.openstreetmap.org. The data is made available under ODbL.",
  "timestamp": "2023-12-31T00:11:53Z",
  "features": [
    {
      "type": "Feature",
      "properties": {
        "@id": "node/3828692137",
        "addr:city": "Medellín",
        "addr:full": "CARRERA 66B CON CIRCULAR 2-1",
        "addr:housenumber": "2-1",
        "addr:street": "CARRERA 66B",
        "amenity": "bicycle_rental",
        "bicycle_rental": "docking_station",
        "brand": "EnCicla",
        "brand:wikidata": "Q18644128",
        "description": "Esquina de la Av. Bolivariana con Circular 2da en el costado sur del parque de Los Mangos",
        "name": "Estación EnCicla San Joaquín",
        "opening_hours": "Mo-Fr 05:30-22:00; Sa 06:30-21:00; Su 08:00-16:00",
        "operator": "EnCicla",
        "parking:conditions": "customers",
        "parking:fee": "free",
        "supervised": "no"
      },
      "geometry": {
        "type": "Point",
        "coordinates": [
          -75.5858525,
          6.2435388
        ]
      },
      "id": "node/3828692137"
    },
    {
      "type": "Feature",
      "properties": {
        "@id": "node/4224384664",
        "addr:city": "Medellín",
        "addr:full": "CARRERA 39D # 73-95",
        "addr:housenumber": "73-95",
        "addr:street": "CARRERA 39D",
        "amenity": "bicycle_rental",
        "bicycle_rental": "docking_station",
        "brand": "EnCicla",
        "brand:wikidata": "Q18644128",
        "name": "Estación EnCicla Primer Parque de Laureles",
        "note": "Costado norte del 1er Parque de Laureles, al borde de la ciclorruta",
        "opening_hours": "Mo-Fr 05:30-22:00; Sa 06:30-21:00",
        "operator": "EnCicla",
        "parking:conditions": "customers",
        "parking:fee": "free",
        "supervised": "no"
      },
      "geometry": {
        "type": "Point",
        "coordinates": [
          -75.5934651,
          6.2461287
        ]
      },
      "id": "node/4224384664"
    },
    {
      "type": "Feature",
      "properties": {
        "@id": "node/4318405089",
        "addr:city": "Medellín",
        "addr:full": "CARRERA 76 # 39B-13",
        "addr:housenumber": "39B-13",
        "addr:street": "CARRERA 76",
        "amenity": "bicycle_rental",
        "bicycle_rental": "docking_station",
        "brand": "EnCicla",
        "brand:wikidata": "Q18644128",
        "fee": "no",
        "membership": "required",
        "name": "Estación EnCicla Pedro Nel Gómez",
        "note": "Av. Nutibara en las esquina de las instalaciones de UNE",
        "opening_hours": "Mo-Fr 05:30-21:00; Sa 06:30-21:00, Su 08:00-16:00",
        "operator": "EnCicla",
        "parking:conditions": "customers",
        "parking:fee": "free",
        "supervised": "no",
        "website": "https://encicla.metropol.gov.co/"
      },
      "geometry": {
        "type": "Point",
        "coordinates": [
          -75.5965191,
          6.246968
        ]
      },
      "id": "node/4318405089"
    },
    {
      "type": "Feature",
      "properties": {
        "@id": "node/4413927095",
        "amenity": "bicycle_rental",
        "bicycle_rental": "docking_station",
        "brand": "EnCicla",
        "brand:wikidata": "Q18644128",
        "name": "Estación EnCicla MAMM",
        "name:es": "Estación EnCicla MAMM",
        "network": "EnCicla",
        "opening_hours": "Mo-Fr 05:30-22:00; Sa 06:30-21:00; Su 08:00-16:00",
        "operator": "EnCicla"
      },
      "geometry": {
        "type": "Point",
        "coordinates": [
          -75.5750161,
          6.2239257
        ]
      },
      "id": "node/4413927095"
    },
    {
      "type": "Feature",
      "properties": {
        "@id": "node/4413944492",
        "amenity": "bicycle_rental",
        "bicycle_rental": "docking_station",
        "brand": "EnCicla",
        "brand:wikidata": "Q18644128",
        "description": "A la entrada de Salud Sura Industriales sobre Av. Las Vegas.",
        "name": "Estación EnCicla Río Aburrá",
        "name:es": "Estación EnCicla Río Aburrá",
        "opening_hours": "Mo-Fr 05:30-22:00; Sa 06:30-21:00; Su 08:00-16:00",
        "operator": "EnCicla"
      },
      "geometry": {
        "type": "Point",
        "coordinates": [
          -75.5746628,
          6.2279493
        ]
      },
      "id": "node/4413944492"
    },
    {
      "type": "Feature",
      "properties": {
        "@id": "node/4477643070",
        "addr:city": "Medellín",
        "addr:full": "Carrera 75 # 38-10",
        "addr:housenumber": "38-10",
        "addr:street": "Carrera 75",
        "amenity": "bicycle_rental",
        "brand": "EnCicla",
        "brand:wikidata": "Q18644128",
        "description": "Costado oriental del 2do Parque de Laureles con Av. Jardín",
        "name": "Estación EnCicla Segundo Parque de Laureles",
        "opening_hours": "Mo-Fr 05:30-22:00; Sa 06:30-21:00",
        "operator": "EnCicla",
        "parking:conditions": "customers",
        "parking:fee": "free",
        "supervised": "yes"
      },
      "geometry": {
        "type": "Point",
        "coordinates": [
          -75.5970311,
          6.2451411
        ]
      },
      "id": "node/4477643070"
    },
    {
      "type": "Feature",
      "properties": {
        "@id": "node/4951685425",
        "amenity": "bicycle_rental",
        "bicycle_rental": "docking_station",
        "brand": "EnCicla",
        "brand:wikidata": "Q18644128",
        "description": "Av. Bolivariana con Carrera 65, costado Norte del Parque de Los Mangos .",
        "mapillary": "154207780263032",
        "name": "Estación EnCicla Parque Los Mangos",
        "opening_hours": "Mo-Fr 05:30-22:00; Sa 06:30-21:00; Su 08:00-16:00",
        "operator": "EnCicla"
      },
      "geometry": {
        "type": "Point",
        "coordinates": [
          -75.5839593,
          6.2454229
        ]
      },
      "id": "node/4951685425"
    },
    {
      "type": "Feature",
      "properties": {
        "@id": "node/5010370888",
        "access": "customers",
        "amenity": "bicycle_rental",
        "bicycle_rental": "docking_station",
        "brand": "EnCicla",
        "brand:wikidata": "Q18644128",
        "capacity": "26",
        "covered": "no",
        "fee": "no",
        "membership": "required",
        "name": "Estación EnCicla Ruta N",
        "network": "EnCicla",
        "opening_hours": "Mo-Fr 05:30-22:00; Sa 06:30-21:00; Su 08:00-16:00",
        "operator": "EnCicla",
        "website": "https://encicla.metropol.gov.co/"
      },
      "geometry": {
        "type": "Point",
        "coordinates": [
          -75.5663289,
          6.2651599
        ]
      },
      "id": "node/5010370888"
    },
    {
      "type": "Feature",
      "properties": {
        "@id": "node/5807236707",
        "amenity": "bicycle_rental",
        "bicycle_rental": "docking_station",
        "brand": "EnCicla",
        "brand:wikidata": "Q18644128",
        "name": "Estación EnCicla Ciudad del Río",
        "network": "EnCicla",
        "opening_hours": "Mo-Fr 05:30-22:00; Sa 06:30-21:00; Su 08:00-16:00",
        "operator": "EnCicla"
      },
      "geometry": {
        "type": "Point",
        "coordinates": [
          -75.5729881,
          6.2225341
        ]
      },
      "id": "node/5807236707"
    },
    {
      "type": "Feature",
      "properties": {
        "@id": "node/5807236708",
        "amenity": "bicycle_rental",
        "bicycle_rental": "docking_station",
        "brand": "EnCicla",
        "brand:wikidata": "Q18644128",
        "name": "Estación EnCicla Villa Carlota",
        "network": "EnCicla",
        "opening_hours": "Mo-Fr 05:30-22:00; Sa 06:30-21:00; Su 08:00-16:00",
        "operator": "EnCicla"
      },
      "geometry": {
        "type": "Point",
        "coordinates": [
          -75.5753057,
          6.2206373
        ]
      },
      "id": "node/5807236708"
    },
    {
      "type": "Feature",
      "properties": {
        "@id": "node/5951707185",
        "addr:city": "Medellín",
        "addr:full": "CALLE 44 # 69-133",
        "addr:housenumber": "69-133",
        "addr:street": "CALLE 44",
        "amenity": "bicycle_rental",
        "bicycle_rental": "docking_station",
        "brand": "EnCicla",
        "brand:wikidata": "Q18644128",
        "capacity": "9",
        "description": "Costado norte de la Calle 44 San Juan con Carrera 70",
        "name": "Estación EnCicla San Juan",
        "opening_hours": "Mo-Fr 05:30-22:00; Sa 06:30-21:00; Su 08:00-16:00",
        "operator": "EnCicla",
        "parking:conditions": "customers",
        "parking:fee": "free",
        "supervised": "no"
      },
      "geometry": {
        "type": "Point",
        "coordinates": [
          -75.5886462,
          6.249068
        ]
      },
      "id": "node/5951707185"
    },
    {
      "type": "Feature",
      "properties": {
        "@id": "node/6124219848",
        "amenity": "bicycle_rental",
        "bicycle_rental": "docking_station",
        "brand": "EnCicla",
        "brand:wikidata": "Q18644128",
        "description": "Esquina de la Calle 44 San Juan con Carrera 65 en Homecenter.",
        "name": "Estación EnCicla La 65",
        "opening_hours": "Mo-Fr 05:30-22:00; Sa 06:30-21:00; Su 08:00-16:00",
        "operator": "EnCicla",
        "parking:conditions": "customers",
        "parking:fee": "free",
        "website": "https://encicla.metropol.gov.co/"
      },
      "geometry": {
        "type": "Point",
        "coordinates": [
          -75.5834223,
          6.2488596
        ]
      },
      "id": "node/6124219848"
    },
    {
      "type": "Feature",
      "properties": {
        "@id": "node/6174424290",
        "amenity": "bicycle_rental",
        "brand": "EnCicla",
        "brand:wikidata": "Q18644128",
        "name": "Estación EnCicla María Luisa Calle",
        "opening_hours": "Mo-Fr 05:30-22:00; Sa 06:30-21:00",
        "operator": "EnCicla"
      },
      "geometry": {
        "type": "Point",
        "coordinates": [
          -75.5930811,
          6.2157862
        ]
      },
      "id": "node/6174424290"
    },
    {
      "type": "Feature",
      "properties": {
        "@id": "node/6434389086",
        "addr:city": "Medellín",
        "addr:housenumber": "30-1",
        "addr:street": "CARRERA 65",
        "amenity": "bicycle_rental",
        "bicycle_rental": "docking_station",
        "brand": "EnCicla",
        "brand:wikidata": "Q18644128",
        "description": "Costado occidental de la estación Nutibara de Metroplús sobre la Carrera 65 con Calle 30",
        "name": "Estación EnCicla Nutibara",
        "opening_hours": "Mo-Fr 05:30-22:00; Sa 06:30-21:00; Su 08:00-16:00",
        "operator": "EnCicla",
        "parking:conditions": "customers",
        "parking:fee": "free",
        "supervised": "no",
        "website": "https://encicla.metropol.gov.co/"
      },
      "geometry": {
        "type": "Point",
        "coordinates": [
          -75.5829135,
          6.231723
        ]
      },
      "id": "node/6434389086"
    },
    {
      "type": "Feature",
      "properties": {
        "@id": "node/6434389087",
        "addr:city": "Medellín",
        "addr:full": "CARRERA 70 # 29-73",
        "addr:housenumber": "29-73",
        "addr:street": "CARRERA 70",
        "amenity": "bicycle_rental",
        "brand": "EnCicla",
        "brand:wikidata": "Q18644128",
        "description": "Esquina de la Cll. 30 con Cra. 70, diagonal a la estación Rosales de Metroplús",
        "name": "Estación EnCicla Rosales",
        "opening_hours": "Mo-Fr 05:30-22:00; Sa 06:30-21:00",
        "operator": "EnCicla",
        "parking:conditions": "customers",
        "parking:fee": "free",
        "supervised": "yes"
      },
      "geometry": {
        "type": "Point",
        "coordinates": [
          -75.5914891,
          6.2314179
        ]
      },
      "id": "node/6434389087"
    },
    {
      "type": "Feature",
      "properties": {
        "@id": "node/6812944489",
        "amenity": "bicycle_rental",
        "bicycle_rental": "docking_station",
        "brand": "EnCicla",
        "brand:wikidata": "Q18644128",
        "capacity": "16",
        "description": "Media cuadra debajo de INVIAS. Cerca a glorieta de Colombia x La 80.",
        "name": "Estación EnCicla Calle 51 Los Colores",
        "opening_hours": "Mo-Fr 05:00-21:00; Sa 06:00-15:00; Su 08:00-16:00",
        "operator": "EnCicla",
        "website": "https://encicla.metropol.gov.co/"
      },
      "geometry": {
        "type": "Point",
        "coordinates": [
          -75.5951057,
          6.2634398
        ]
      },
      "id": "node/6812944489"
    },
    {
      "type": "Feature",
      "properties": {
        "@id": "node/6983533006",
        "amenity": "bicycle_rental",
        "bicycle_rental": "docking_station",
        "brand": "EnCicla",
        "brand:wikidata": "Q18644128",
        "description": "Esquina del supermercado Consumo y la unidad Camino de Los Colores.",
        "fee": "no",
        "name": "Estación EnCicla Orquídeas",
        "opening_hours": "Mo-Fr 05:30-22:00; Sa 06:30-21:00; Su 08:00-16:00",
        "operator": "EnCicla",
        "operator:type": "public",
        "website": "https://encicla.metropol.gov.co/"
      },
      "geometry": {
        "type": "Point",
        "coordinates": [
          -75.5887258,
          6.2627502
        ]
      },
      "id": "node/6983533006"
    },
    {
      "type": "Feature",
      "properties": {
        "@id": "node/7092226385",
        "amenity": "bicycle_rental",
        "bicycle_rental": "docking_station",
        "brand": "EnCicla",
        "brand:wikidata": "Q18644128",
        "description": "En el túnel verde EPM al costado norte de Pies Descalzos.",
        "name": "Estación EnCicla Pies Descalzos I",
        "opening_hours": "Mo-Fr 05:30-21:00; Sa 06:30-20:00; Su 08:00-16:00",
        "operator": "EnCicla",
        "website": "https://encicla.metropol.gov.co/"
      },
      "geometry": {
        "type": "Point",
        "coordinates": [
          -75.5768989,
          6.2454098
        ]
      },
      "id": "node/7092226385"
    },
    {
      "type": "Feature",
      "properties": {
        "@id": "node/7098774687",
        "amenity": "bicycle_rental",
        "bicycle_rental": "docking_station",
        "brand": "EnCicla",
        "brand:wikidata": "Q18644128",
        "fee": "no",
        "name": "Estación EnCicla Unicentro",
        "opening_hours": "Mo-Fr 05:30-21:00; Sa 06:30-20:00; Su 08:00-16:00",
        "operator": "EnCicla",
        "operator:type": "government",
        "website": "https://encicla.metropol.gov.co/"
      },
      "geometry": {
        "type": "Point",
        "coordinates": [
          -75.5867317,
          6.2399984
        ]
      },
      "id": "node/7098774687"
    },
    {
      "type": "Feature",
      "properties": {
        "@id": "node/7115041886",
        "amenity": "bicycle_rental",
        "bicycle_rental": "docking_station",
        "brand": "EnCicla",
        "brand:wikidata": "Q18644128",
        "name": "Estación EnCicla Industriales Metro",
        "opening_hours": "Mo-Fr 05:30-22:00; Sa 06:30-21:00; Su 08:00-16:00",
        "operator": "EnCicla",
        "website": "https://encicla.metropol.gov.co/"
      },
      "geometry": {
        "type": "Point",
        "coordinates": [
          -75.5743413,
          6.2303917
        ]
      },
      "id": "node/7115041886"
    },
    {
      "type": "Feature",
      "properties": {
        "@id": "node/7195307263",
        "amenity": "bicycle_rental",
        "bicycle_rental": "docking_station",
        "brand": "EnCicla",
        "brand:wikidata": "Q18644128",
        "name": "Estación EnCicla San Pedro y San Pablo",
        "opening_hours": "Mo-Fr 05:30-22:00; Sa 06:30-21:00; Su 08:00-16:00",
        "operator": "EnCicla",
        "parking:conditions": "customers",
        "parking:fee": "free",
        "supervised": "no"
      },
      "geometry": {
        "type": "Point",
        "coordinates": [
          -75.5942533,
          6.2583172
        ]
      },
      "id": "node/7195307263"
    },
    {
      "type": "Feature",
      "properties": {
        "@id": "node/7235859231",
        "addr:city": "Medellín",
        "addr:full": "CALLE 42C - Cr 63B",
        "addr:housenumber": "Cr 63B",
        "addr:street": "CALLE 42C",
        "amenity": "bicycle_rental",
        "bicycle_rental": "docking_station",
        "brand": "EnCicla",
        "brand:wikidata": "Q18644128",
        "name": "Estación EnCicla Parques del Río",
        "note": "Costado noroccidental de Parques del Río",
        "opening_hours": "Mo-Fr 05:30-22:00; Sa 06:30-21:00; Su 08:00-16:00",
        "operator": "EnCicla",
        "parking:conditions": "customers",
        "parking:fee": "free",
        "supervised": "no"
      },
      "geometry": {
        "type": "Point",
        "coordinates": [
          -75.5800336,
          6.2449818
        ]
      },
      "id": "node/7235859231"
    },
    {
      "type": "Feature",
      "properties": {
        "@id": "node/7253815368",
        "addr:city": "Medellín",
        "addr:full": "CALLE 82A # 52-29",
        "addr:housenumber": "52-29",
        "addr:street": "CALLE 82A",
        "amenity": "bicycle_rental",
        "brand": "EnCicla",
        "brand:wikidata": "Q18644128",
        "description": "Frente a la entrada principal del Centro de Desarrollo Cultural de Moravia",
        "name": "Estación EnCicla Moravia",
        "opening_hours": "Mo-Fr 05:30-22:00; Sa 06:30-21:00",
        "operator": "EnCicla",
        "parking:conditions": "customers",
        "parking:fee": "free",
        "supervised": "no"
      },
      "geometry": {
        "type": "Point",
        "coordinates": [
          -75.5647968,
          6.2765944
        ]
      },
      "id": "node/7253815368"
    },
    {
      "type": "Feature",
      "properties": {
        "@id": "node/7253816371",
        "amenity": "bicycle_rental",
        "bicycle_rental": "docking_station",
        "brand": "EnCicla",
        "brand:wikidata": "Q18644128",
        "description": "En el túnel verde EPM al costado norte de Pies Descalzos.",
        "name": "Estación EnCicla Pies Descalzos II",
        "opening_hours": "Mo-Fr 05:30-21:00; Sa 06:30-20:00; Su 08:00-16:00",
        "operator": "EnCicla",
        "website": "https://encicla.metropol.gov.co/"
      },
      "geometry": {
        "type": "Point",
        "coordinates": [
          -75.5767369,
          6.2452886
        ]
      },
      "id": "node/7253816371"
    },
    {
      "type": "Feature",
      "properties": {
        "@id": "node/7282651231",
        "addr:city": "Medellín",
        "addr:full": "CARRERA 52 # 52-36",
        "addr:housenumber": "52-36",
        "addr:street": "CARRERA 52",
        "amenity": "bicycle_rental",
        "brand": "EnCicla",
        "brand:wikidata": "Q18644128",
        "description": "Plazoleta de Botero frente a la entrada principal del Museo de Antioquia",
        "name": "Estación EnCicla Museo de Antioquia",
        "opening_hours": "Mo-Sa 06:30-17:30",
        "operator": "EnCicla",
        "parking:conditions": "customers",
        "parking:fee": "free",
        "supervised": "yes"
      },
      "geometry": {
        "type": "Point",
        "coordinates": [
          -75.5688039,
          6.2517881
        ]
      },
      "id": "node/7282651231"
    },
    {
      "type": "Feature",
      "properties": {
        "@id": "node/7282684154",
        "addr:city": "Medellín",
        "addr:full": "CARRERA 51 #50-82",
        "addr:housenumber": "50-82",
        "addr:street": "CARRERA 51",
        "amenity": "bicycle_rental",
        "bicycle_rental": "docking_station",
        "brand": "EnCicla",
        "brand:wikidata": "Q18644128",
        "description": "Bajo la estación Parque Berrío del Metro entrada sur",
        "name": "Estación EnCicla Parque Berrio",
        "opening_hours": "Mo-Fr 05:30-22:00; Sa 06:30-21:00; Su 08:00-16:00",
        "operator": "EnCicla",
        "parking:conditions": "customers",
        "parking:fee": "free",
        "supervised": "no"
      },
      "geometry": {
        "type": "Point",
        "coordinates": [
          -75.5683293,
          6.2500479
        ]
      },
      "id": "node/7282684154"
    },
    {
      "type": "Feature",
      "properties": {
        "@id": "node/7282804006",
        "addr:city": "Medellín",
        "addr:full": "CARRERA 51 entre Cll 46 y Cll 47",
        "addr:housenumber": "46",
        "addr:street": "CARRERA 51",
        "amenity": "bicycle_rental",
        "bicycle_rental": "docking_station",
        "brand": "EnCicla",
        "brand:wikidata": "Q18644128",
        "description": "Bajo la estación San Antonio del Metro",
        "name": "Estación EnCicla San Antonio",
        "opening_hours": "Mo-Fr 05:30-22:00; Sa 06:30-21:00; Su 08:00-16:00",
        "operator": "EnCicla",
        "parking:conditions": "customers",
        "parking:fee": "free",
        "supervised": "no"
      },
      "geometry": {
        "type": "Point",
        "coordinates": [
          -75.5690811,
          6.2483407
        ]
      },
      "id": "node/7282804006"
    },
    {
      "type": "Feature",
      "properties": {
        "@id": "node/7282822566",
        "addr:city": "Medellín",
        "addr:full": "CALLE 44 # 52A-14",
        "addr:housenumber": "52A-14",
        "addr:street": "CALLE 44",
        "amenity": "bicycle_rental",
        "bicycle_rental": "docking_station",
        "brand": "EnCicla",
        "brand:wikidata": "Q18644128",
        "description": "Plaza de Cisneros frente a los edificios Carré y Vásquez",
        "name": "Estación EnCicla Parque de Las Luces I",
        "opening_hours": "Mo-Fr 05:30-22:00; Sa 06:30-21:00; Su 08:00-16:00",
        "operator": "EnCicla",
        "parking:conditions": "customers",
        "parking:fee": "free",
        "supervised": "no"
      },
      "geometry": {
        "type": "Point",
        "coordinates": [
          -75.5717017,
          6.2461423
        ]
      },
      "id": "node/7282822566"
    },
    {
      "type": "Feature",
      "properties": {
        "@id": "node/7282822567",
        "addr:city": "Medellín",
        "addr:full": "CALLE 44 # 52A-14",
        "addr:housenumber": "52A-14",
        "addr:street": "CALLE 44",
        "amenity": "bicycle_rental",
        "bicycle_rental": "docking_station",
        "brand": "EnCicla",
        "brand:wikidata": "Q18644128",
        "description": "Plaza de Cisneros frente a los edificios Carré y Vásquez",
        "name": "Estación EnCicla Parque de Las Luces II",
        "opening_hours": "Mo-Fr 05:30-22:00; Sa 06:30-21:00; Su 08:00-16:00",
        "operator": "EnCicla",
        "parking:conditions": "customers",
        "parking:fee": "free",
        "supervised": "no"
      },
      "geometry": {
        "type": "Point",
        "coordinates": [
          -75.571809,
          6.2456917
        ]
      },
      "id": "node/7282822567"
    },
    {
      "type": "Feature",
      "properties": {
        "@id": "node/7282861253",
        "addr:city": "Medellín",
        "addr:full": "CARRERA 48 # 27-4",
        "addr:housenumber": "27-4",
        "addr:street": "CARRERA 48",
        "amenity": "bicycle_rental",
        "bicycle_rental": "docking_station",
        "brand": "EnCicla",
        "brand:wikidata": "Q18644128",
        "description": "Bajo la estación San Antonio",
        "name": "Estación EnCicla Málaga",
        "opening_hours": "Mo-Fr 05:30-22:00; Sa 06:30-21:00; Su 08:00-16:00",
        "operator": "EnCicla",
        "parking:conditions": "customers",
        "parking:fee": "free",
        "supervised": "no"
      },
      "geometry": {
        "type": "Point",
        "coordinates": [
          -75.5699381,
          6.2469104
        ]
      },
      "id": "node/7282861253"
    },
    {
      "type": "Feature",
      "properties": {
        "@id": "node/7523641746",
        "addr:city": "Medellín",
        "addr:full": "CARRERA 64A CON CALLE 50",
        "addr:housenumber": "50",
        "addr:street": "CARRERA 64A",
        "amenity": "bicycle_rental",
        "bicycle_rental": "docking_station",
        "brand": "EnCicla",
        "brand:wikidata": "Q18644128",
        "description": "Parque Carlos E. Restrepo en el costado Norte de la Calle 50 Av. Colombia",
        "name": "Estación EnCicla Carlos E. Restrepo",
        "opening_hours": "Mo-Fr 05:30-22:00; Sa 06:30-21:00, Su 08:00-16:00",
        "operator": "EnCicla",
        "parking:conditions": "customers",
        "parking:fee": "free",
        "supervised": "no",
        "website": "https://encicla.metropol.gov.co/"
      },
      "geometry": {
        "type": "Point",
        "coordinates": [
          -75.5791783,
          6.2556094
        ]
      },
      "id": "node/7523641746"
    },
    {
      "type": "Feature",
      "properties": {
        "@id": "node/7523647420",
        "addr:city": "Medellín",
        "addr:full": "CARRERA 70 # TRANSVERSAL 51A",
        "addr:housenumber": "TRANSVERSAL 51A",
        "addr:street": "CARRERA 70",
        "amenity": "bicycle_rental",
        "bicycle_rental": "docking_station",
        "brand": "EnCicla",
        "brand:wikidata": "Q18644128",
        "capacity": "14",
        "description": "Al frente de la entrada principal de la Institución Universitaria Salazar y Herrera.",
        "name": "Estación EnCicla Los Colores",
        "opening_hours": "Mo-Fr 05:30-22:00; Sa 06:30-21:00; Su 08:00-16:00",
        "operator": "EnCicla",
        "parking:conditions": "customers",
        "parking:fee": "free",
        "supervised": "no"
      },
      "geometry": {
        "type": "Point",
        "coordinates": [
          -75.5851465,
          6.260079
        ]
      },
      "id": "node/7523647420"
    },
    {
      "type": "Feature",
      "properties": {
        "@id": "node/7523666590",
        "addr:city": "Medellín",
        "addr:full": "CARRERA 65 # 50-29",
        "addr:housenumber": "50-29",
        "addr:street": "CARRERA 65",
        "amenity": "bicycle_rental",
        "brand": "EnCicla",
        "brand:wikidata": "Q18644128",
        "description": "Esquina occidental de la Carrera 65 con Calle 51",
        "mapillary": "1516524632055885",
        "name": "Estación EnCicla Colombia",
        "opening_hours": "Mo-Fr 05:30-22:00; Sa 06:30-21:00",
        "operator": "EnCicla",
        "parking:conditions": "customers",
        "parking:fee": "free",
        "supervised": "yes"
      },
      "geometry": {
        "type": "Point",
        "coordinates": [
          -75.5809767,
          6.2565197
        ]
      },
      "id": "node/7523666590"
    },
    {
      "type": "Feature",
      "properties": {
        "@id": "node/7523691049",
        "addr:city": "Medellín",
        "addr:housenumber": "70-82",
        "addr:street": "Calle 47D",
        "amenity": "bicycle_rental",
        "bicycle_rental": "dropoff_point",
        "brand": "EnCicla",
        "brand:wikidata": "Q18644128",
        "description": "Bajo el viaducto de la estación Estadio del Metro en el parqueadero de bicicletas",
        "name": "Estación EnCicla Estadio",
        "opening_hours": "Mo-Fr 05:30-22:00; Sa 06:30-21:00",
        "operator": "EnCicla",
        "parking:conditions": "customers",
        "parking:fee": "no",
        "supervised": "yes"
      },
      "geometry": {
        "type": "Point",
        "coordinates": [
          -75.5885357,
          6.2534479
        ]
      },
      "id": "node/7523691049"
    },
    {
      "type": "Feature",
      "properties": {
        "@id": "node/7523723745",
        "addr:city": "Medellín",
        "addr:full": "CALLE 47 # 72-21",
        "addr:housenumber": "72-21",
        "addr:street": "CALLE 47",
        "amenity": "bicycle_rental",
        "bicycle_rental": "docking_station",
        "brand": "EnCicla",
        "brand:wikidata": "Q18644128",
        "capacity": "13",
        "description": "Vía paralela a la Calle 47D Av. Antonio Roldán y el Parque Florida Nueva",
        "name": "Estación EnCicla Florida Nueva",
        "opening_hours": "Mo-Fr 05:30-22:00; Sa 06:30-21:00; Su 08:00-16:00",
        "operator": "EnCicla",
        "parking:conditions": "customers",
        "parking:fee": "free",
        "supervised": "no"
      },
      "geometry": {
        "type": "Point",
        "coordinates": [
          -75.5902759,
          6.2526076
        ]
      },
      "id": "node/7523723745"
    },
    {
      "type": "Feature",
      "properties": {
        "@id": "node/7523739221",
        "addr:city": "Medellín",
        "addr:full": "CARRERA 70 # CIRCULAR 1-50",
        "addr:housenumber": "1-50",
        "addr:street": "CARRERA 70",
        "amenity": "bicycle_rental",
        "brand": "EnCicla",
        "brand:wikidata": "Q18644128",
        "description": "Sobre la ciclorruta de la Carrera 70 frente a la entrada de la UPB",
        "mapillary": "1142352833003511",
        "name": "Estación EnCicla UPB",
        "opening_hours": "Mo-Fr 05:30-22:00; Sa 06:30-21:00",
        "operator": "EnCicla",
        "parking:conditions": "customers",
        "parking:fee": "free",
        "supervised": "yes"
      },
      "geometry": {
        "type": "Point",
        "coordinates": [
          -75.5892929,
          6.2450134
        ]
      },
      "id": "node/7523739221"
    },
    {
      "type": "Feature",
      "properties": {
        "@id": "node/7523779696",
        "addr:city": "Medellín",
        "addr:full": "CARRERA 67A CON CIRCULAR 3",
        "addr:housenumber": "CIRCULAR 3",
        "addr:street": "CARRERA 67A",
        "amenity": "bicycle_rental",
        "bicycle_rental": "docking_station",
        "brand": "EnCicla",
        "brand:wikidata": "Q18644128",
        "name": "Estación EnCicla Parque San Joaquín",
        "note": "Parque de San Joaquín con la Circular 3",
        "opening_hours": "Mo-Fr 05:30-22:00; Sa 06:30-21:00; Su 08:00-16:00",
        "operator": "EnCicla",
        "parking:conditions": "customers",
        "parking:fee": "free",
        "supervised": "no"
      },
      "geometry": {
        "type": "Point",
        "coordinates": [
          -75.5867528,
          6.2455131
        ]
      },
      "id": "node/7523779696"
    },
    {
      "type": "Feature",
      "properties": {
        "@id": "node/7549016111",
        "amenity": "bicycle_rental",
        "brand": "EnCicla",
        "brand:wikidata": "Q18644128",
        "description": "Al frente del edificio del Área Metropolitana sobre el costado norte de la calle Los Huesos.",
        "name": "Estación EnCicla Área Metropolitana",
        "opening_hours": "Mo-Fr 05:30-22:00; Sa 06:30-21:00",
        "operator": "EnCicla"
      },
      "geometry": {
        "type": "Point",
        "coordinates": [
          -75.5739024,
          6.2425481
        ]
      },
      "id": "node/7549016111"
    },
    {
      "type": "Feature",
      "properties": {
        "@id": "node/7554823750",
        "addr:city": "Medellín",
        "addr:full": "CARRERA 76 # 34A-32",
        "addr:housenumber": "34A-32",
        "addr:street": "CARRERA 76",
        "amenity": "bicycle_rental",
        "bicycle_rental": "docking_station",
        "brand": "EnCicla",
        "brand:wikidata": "Q18644128",
        "description": "Portada de la parroquia de Santa Teresita del Niño Jesús sobre la Carrera 76",
        "name": "Estación EnCicla Santa Teresita",
        "operator": "EnCicla",
        "parking:conditions": "customers",
        "parking:fee": "free",
        "supervised": "no"
      },
      "geometry": {
        "type": "Point",
        "coordinates": [
          -75.5967806,
          6.2418442
        ]
      },
      "id": "node/7554823750"
    },
    {
      "type": "Feature",
      "properties": {
        "@id": "node/7554985920",
        "addr:city": "Medellín",
        "addr:full": "CALLE 44A # 75-34",
        "addr:housenumber": "75-34",
        "addr:street": "CALLE 44A",
        "amenity": "bicycle_rental",
        "bicycle_rental": "docking_station",
        "brand": "EnCicla",
        "brand:wikidata": "Q18644128",
        "description": "Parque monumento a La Virgen en la Cll 44A con Cra 75, vía paralela a la Cll San Juan.",
        "name": "Estación EnCicla María Mulata",
        "opening_hours": "Mo-Fr 05:30-22:00; Sa 06:30-21:00; Su 08:00-16:00",
        "operator": "EnCicla",
        "parking:conditions": "customers",
        "parking:fee": "free",
        "supervised": "no"
      },
      "geometry": {
        "type": "Point",
        "coordinates": [
          -75.5947137,
          6.2506083
        ]
      },
      "id": "node/7554985920"
    },
    {
      "type": "Feature",
      "properties": {
        "@id": "node/7555011085",
        "addr:city": "Medellín",
        "addr:street": "CALLE 47D",
        "amenity": "bicycle_rental",
        "brand": "EnCicla",
        "brand:wikidata": "Q18644128",
        "description": "Ubicada sobre la calle 47D en la bahía vehicular, en el lado suroriental de la estación Floresta del Metro.",
        "name": "Estación EnCicla Floresta",
        "opening_hours": "Mo-Fr 05:30-22:00; Sa 06:30-21:00",
        "operator": "EnCicla",
        "parking:conditions": "customers",
        "parking:fee": "free",
        "supervised": "no"
      },
      "geometry": {
        "type": "Point",
        "coordinates": [
          -75.5973008,
          6.2583844
        ]
      },
      "id": "node/7555011085"
    },
    {
      "type": "Feature",
      "properties": {
        "@id": "node/7560491836",
        "addr:city": "Medellín",
        "addr:full": "DIAGONAL 74B con Cll 32F",
        "addr:housenumber": "32F",
        "addr:street": "DIAGONAL 74B",
        "amenity": "bicycle_rental",
        "bicycle_rental": "docking_station",
        "brand": "EnCicla",
        "brand:wikidata": "Q18644128",
        "description": "Bajo el puente de la Av. Bolivariana",
        "name": "Estación EnCicla Bulerías",
        "opening_hours": "Mo-Fr 05:30-22:00; Sa 06:30-21:00",
        "operator": "EnCicla",
        "parking:conditions": "customers",
        "parking:fee": "free",
        "supervised": "no"
      },
      "geometry": {
        "type": "Point",
        "coordinates": [
          -75.5902424,
          6.2387618
        ]
      },
      "id": "node/7560491836"
    },
    {
      "type": "Feature",
      "properties": {
        "@id": "node/7560525870",
        "addr:city": "Medellín",
        "addr:full": "CARRERA 65 # 32F-12",
        "addr:housenumber": "32F-12",
        "addr:street": "CARRERA 65",
        "amenity": "bicycle_rental",
        "brand": "EnCicla",
        "brand:wikidata": "Q18644128",
        "description": "Costado sur bajo el puente de la Carrera 65 con sobre la Calle 33",
        "name": "Estación EnCicla La 33",
        "opening_hours": "Mo-Fr 05:30-22:00; Sa 06:30-21:00",
        "operator": "EnCicla",
        "parking:conditions": "customers",
        "parking:fee": "free",
        "supervised": "yes"
      },
      "geometry": {
        "type": "Point",
        "coordinates": [
          -75.58303,
          6.2392446
        ]
      },
      "id": "node/7560525870"
    },
    {
      "type": "Feature",
      "properties": {
        "@id": "node/7560637001",
        "addr:city": "Medellín",
        "addr:full": "CARRERA 70 # 16-18",
        "addr:housenumber": "16-18",
        "addr:street": "CARRERA 70",
        "amenity": "bicycle_rental",
        "bicycle_rental": "docking_station",
        "brand": "EnCicla",
        "brand:wikidata": "Q18644128",
        "name": "Estación EnCicla Juan Pablo II",
        "note": "Costado norte de la plazoleta del Aeroparque Juan Pablo II sobre la Av. 70",
        "opening_hours": "Mo-Fr 05:30-22:00; Sa 06:30-21:00; Su 08:00-16:00",
        "operator": "EnCicla",
        "parking:conditions": "customers",
        "parking:fee": "free",
        "supervised": "no"
      },
      "geometry": {
        "type": "Point",
        "coordinates": [
          -75.5919624,
          6.2221372
        ]
      },
      "id": "node/7560637001"
    },
    {
      "type": "Feature",
      "properties": {
        "@id": "node/7830698485",
        "amenity": "bicycle_rental",
        "bicycle_rental": "docking_station",
        "brand": "EnCicla",
        "brand:wikidata": "Q18644128",
        "name": "Estación EnCicla Picacha La 76",
        "opening_hours": "Mo-Fr 05:30-22:00; Sa 06:30-21:00; Su 08:00-16:00",
        "operator": "EnCicla"
      },
      "geometry": {
        "type": "Point",
        "coordinates": [
          -75.5964675,
          6.2352045
        ]
      },
      "id": "node/7830698485"
    },
    {
      "type": "Feature",
      "properties": {
        "@id": "node/8192387481",
        "amenity": "bicycle_rental",
        "bicycle_rental": "docking_station",
        "brand": "EnCicla",
        "brand:wikidata": "Q18644128",
        "capacity": "9",
        "description": "Vía paralela a la Calle 50 Av. Colombia, al costado sur de la zona verde.",
        "mapillary": "1944683899242861",
        "name": "Estación Encicla Batallón",
        "opening_hours": "Mo-Fr 05:30-22:00; Sa 06:30-21:00; Su 08:00-16:00",
        "operator": "EnCicla",
        "parking:conditions": "costumers",
        "parking:fee": "free",
        "website": "https://encicla.metropol.gov.co/"
      },
      "geometry": {
        "type": "Point",
        "coordinates": [
          -75.5950552,
          6.2621878
        ]
      },
      "id": "node/8192387481"
    },
    {
      "type": "Feature",
      "properties": {
        "@id": "node/8438719108",
        "amenity": "bicycle_rental",
        "capacity": "25",
        "fee": "no",
        "name": "Estación EnCicla Parque de Itagüí",
        "name:en": "Parque de Itagüí EnCicla Station",
        "operator": "EnCicla",
        "operator:type": "public"
      },
      "geometry": {
        "type": "Point",
        "coordinates": [
          -75.6093006,
          6.172916
        ]
      },
      "id": "node/8438719108"
    },
    {
      "type": "Feature",
      "properties": {
        "@id": "node/8573378737",
        "amenity": "bicycle_rental",
        "bicycle_rental": "docking_station",
        "brand": "EnCicla",
        "brand:wikidata": "Q18644128",
        "capacity": "18",
        "fee": "no",
        "name": "Estación EnCicla Telemedellín",
        "network": "EnCicla",
        "opening_hours": "Mo-Fr 05:30-22:00; Sa 06:30-21:00; Su 08:00-16:00",
        "operator": "EnCicla",
        "operator:type": "public"
      },
      "geometry": {
        "type": "Point",
        "coordinates": [
          -75.5715983,
          6.2199468
        ]
      },
      "id": "node/8573378737"
    },
    {
      "type": "Feature",
      "properties": {
        "@id": "node/9108975267",
        "amenity": "bicycle_rental",
        "brand": "EnCicla",
        "brand:wikidata": "Q18644128",
        "description": "Bajo el viaducto de la estación Suramericana del Metro.",
        "name": "Estación EnCicla Suramericana",
        "opening_hours": "Mo-Fr 05:30-22:00; Sat 06:30-21:00",
        "operator": "EnCicla"
      },
      "geometry": {
        "type": "Point",
        "coordinates": [
          -75.5833057,
          6.2530191
        ]
      },
      "id": "node/9108975267"
    },
    {
      "type": "Feature",
      "properties": {
        "@id": "node/9680305610",
        "amenity": "bicycle_rental",
        "brand": "EnCicla",
        "brand:wikidata": "Q18644128",
        "name": "Estación EnCicla Industriales Metroplús",
        "opening_hours": "Mo-Fr 05:30-22:00; Sa 06:30-21:00",
        "operator": "EnCicla"
      },
      "geometry": {
        "type": "Point",
        "coordinates": [
          -75.5768741,
          6.2311818
        ]
      },
      "id": "node/9680305610"
    },
    {
      "type": "Feature",
      "properties": {
        "@id": "node/11168197771",
        "amenity": "bicycle_rental",
        "brand": "EnCicla",
        "brand:wikidata": "Q18644128",
        "fee": "no",
        "name": "Estación EnCicla Campus Nacional",
        "opening_hours": "Mo-Fr 05:30-22:00; Sa 06:30-21:00",
        "operator": "EnCicla"
      },
      "geometry": {
        "type": "Point",
        "coordinates": [
          -75.5787669,
          6.2597505
        ]
      },
      "id": "node/11168197771"
    },
    {
      "type": "Feature",
      "properties": {
        "@id": "node/11418264560",
        "amenity": "bicycle_rental",
        "brand": "EnCicla",
        "brand:wikidata": "Q18644128",
        "mapillary": "1113974259984626",
        "name": "Estación EnCicla Universidad",
        "opening_hours": "Mo-Fr 05:30-22:00; Sat 06:30-21:00",
        "operator": "EnCicla"
      },
      "geometry": {
        "type": "Point",
        "coordinates": [
          -75.565301,
          6.2692694
        ]
      },
      "id": "node/11418264560"
    },
    {
      "type": "Feature",
      "properties": {
        "@id": "node/11418264561",
        "amenity": "bicycle_rental",
        "bicycle_rental": "docking_station",
        "brand": "EnCicla",
        "brand:wikidata": "Q18644128",
        "description": "Costado oriental de la SIU sobre la ciclorruta de Carabobo.",
        "mapillary": "605594120648784",
        "name": "Estación EnCicla SIU UdeA",
        "opening_hours": "Mo-Fr 05:30-22:00; Sa 06:30-21:00; Su 08:00-16:00",
        "operator": "EnCicla"
      },
      "geometry": {
        "type": "Point",
        "coordinates": [
          -75.5671847,
          6.2604806
        ]
      },
      "id": "node/11418264561"
    },
    {
      "type": "Feature",
      "properties": {
        "@id": "node/11420246394",
        "amenity": "bicycle_rental",
        "bicycle_rental": "docking_station",
        "brand": "EnCicla",
        "brand:wikidata": "Q18644128",
        "description": "Costado sur de la Plaza de la Libertad al lado de La Alpujarra.",
        "fee": "no",
        "membership": "required",
        "name": "Estación EnCicla Plaza de la Libertad",
        "opening_hours": "Mo-Fr 05:30-22:00; Sa 06:30-21:00; Su 08:00-16:00",
        "operator": "EnCicla",
        "website": "https://encicla.metropol.gov.co/"
      },
      "geometry": {
        "type": "Point",
        "coordinates": [
          -75.5746668,
          6.2435193
        ]
      },
      "id": "node/11420246394"
    },
    {
      "type": "Feature",
      "properties": {
        "@id": "node/11421651617",
        "amenity": "bicycle_rental",
        "bicycle_rental": "docking_station",
        "brand": "EnCicla",
        "brand:wikidata": "Q18644128",
        "name": "Estación EnCicla Calle 19A Villa Carlota",
        "opening_hours": "Mo-Fr 05:30-22:00; Sa 06:30-21:00; Su 08:00-16:00",
        "operator": "EnCicla"
      },
      "geometry": {
        "type": "Point",
        "coordinates": [
          -75.5710116,
          6.2221222
        ]
      },
      "id": "node/11421651617"
    },
    {
      "type": "Feature",
      "properties": {
        "@id": "node/11423152585",
        "amenity": "bicycle_rental",
        "brand": "EnCicla",
        "brand:wikidata": "Q18644128",
        "name": "Estación EnCicla Robledo",
        "note": "Al frente de la entrada principal del Colegio Mayor.",
        "opening_hours": "Mo-Fr 05:30-22:00; Sa 06:30-21:00",
        "operator": "EnCicla"
      },
      "geometry": {
        "type": "Point",
        "coordinates": [
          -75.5921486,
          6.2730849
        ]
      },
      "id": "node/11423152585"
    },
    {
      "type": "Feature",
      "properties": {
        "@id": "node/11423152586",
        "amenity": "bicycle_rental",
        "brand": "EnCicla",
        "brand:wikidata": "Q18644128",
        "name": "Estación EnCicla Ciudadela Universitaria Robledo",
        "opening_hours": "Mo-Fr 05:30-22:00; Sa 06:30-21:00",
        "operator": "EnCicla"
      },
      "geometry": {
        "type": "Point",
        "coordinates": [
          -75.5886685,
          6.2732964
        ]
      },
      "id": "node/11423152586"
    },
    {
      "type": "Feature",
      "properties": {
        "@id": "node/11423152587",
        "amenity": "bicycle_rental",
        "brand": "EnCicla",
        "brand:wikidata": "Q18644128",
        "fee": "no",
        "membership": "required",
        "name": "Estación EnCicla Bahía Vehicular",
        "note": "Ubicada en la carrera 72A, frente a la entrada de urgencias del Hospital Pablo Tobón Uribe.",
        "opening_hours": "Mo-Fr 05:30-22:00; Sa 06:30-21:00",
        "operator": "EnCicla",
        "website": "https://encicla.metropol.gov.co/"
      },
      "geometry": {
        "type": "Point",
        "coordinates": [
          -75.5805666,
          6.278459
        ]
      },
      "id": "node/11423152587"
    },
    {
      "type": "Feature",
      "properties": {
        "@id": "node/11423152588",
        "amenity": "bicycle_rental",
        "brand": "EnCicla",
        "brand:wikidata": "Q18644128",
        "name": "Estación EnCicla Hospital Infantil Concejo de Medellín",
        "opening_hours": "Mo-Fr 05:30-22:00; Sa 06:30-21:00",
        "operator": "EnCicla"
      },
      "geometry": {
        "type": "Point",
        "coordinates": [
          -75.5588613,
          6.268301
        ]
      },
      "id": "node/11423152588"
    },
    {
      "type": "Feature",
      "properties": {
        "@id": "node/11423152589",
        "amenity": "bicycle_rental",
        "brand": "EnCicla",
        "brand:wikidata": "Q18644128",
        "description": "Ubicada en el costado occidental. Ciudadela para la cuarta revolución industrial.",
        "name": "Estación EnCicla C4TA",
        "opening_hours": "Mo-Fr 05:30-22:00; Sa 06:30-21:00",
        "operator": "EnCicla"
      },
      "geometry": {
        "type": "Point",
        "coordinates": [
          -75.613835,
          6.2540556
        ]
      },
      "id": "node/11423152589"
    },
    {
      "type": "Feature",
      "properties": {
        "@id": "node/11423152590",
        "amenity": "bicycle_rental",
        "bicycle_rental": "docking_station",
        "brand": "EnCicla",
        "brand:wikidata": "Q18644128",
        "name": "Estación EnCicla Politécnico",
        "opening_hours": "Mo-Fr 05:30-22:00; Sa 06:30-21:00; Su 08:00-16:00",
        "operator": "EnCicla"
      },
      "geometry": {
        "type": "Point",
        "coordinates": [
          -75.5764287,
          6.2098484
        ]
      },
      "id": "node/11423152590"
    },
    {
      "type": "Feature",
      "properties": {
        "@id": "node/11435747800",
        "addr:city": "Medellín",
        "addr:full": "Calle 51 x carrera 40",
        "addr:housenumber": "Carrera 40",
        "addr:street": "Calle 51",
        "amenity": "bicycle_rental",
        "bicycle_rental": "docking_station",
        "brand": "EnCicla",
        "brand:wikidata": "Q18644128",
        "description": "Av. La Playa Ubicado al occidente del Teatro Pablo Tobón Uribe",
        "name": "Estación EnCicla Teatro Pablo Tobón Uribe",
        "opening_hours": "Mo-Fr 05:30-22:00; Sa 06:30-21:00; Su 08:00-16:00",
        "operator": "EnCicla"
      },
      "geometry": {
        "type": "Point",
        "coordinates": [
          -75.5603898,
          6.247471
        ]
      },
      "id": "node/11435747800"
    },
    {
      "type": "Feature",
      "properties": {
        "@id": "node/11435772163",
        "addr:full": "Calle 46 entre carreras 55 y 57",
        "amenity": "bicycle_rental",
        "bicycle_rental": "docking_station",
        "brand": "EnCicla",
        "brand:wikidata": "Q18644128",
        "description": "Ubicada debajo del viaducto de la estación del Metro de Medellín Cisneros en el costado oriental.",
        "name": "Estación EnCicla Cisneros",
        "opening_hours": "Mo-Fr 05:30-22:00; Sa 06:30-21:00; Su 08:00-16:00",
        "operator": "EnCicla"
      },
      "geometry": {
        "type": "Point",
        "coordinates": [
          -75.5746908,
          6.2487318
        ]
      },
      "id": "node/11435772163"
    },
    {
      "type": "Feature",
      "properties": {
        "@id": "node/11435772661",
        "addr:city": "Medellín",
        "addr:full": "Calle 52 #28A-46",
        "addr:housenumber": "28A-46",
        "addr:street": "Calle 52",
        "amenity": "bicycle_rental",
        "bicycle_rental": "docking_station",
        "brand": "EnCicla",
        "brand:wikidata": "Q18644128",
        "description": "La Playa con Sucre",
        "name": "Estación EnCicla Coltejer",
        "opening_hours": "Mo-Fr 05:30-22:00; Sa 06:30-21:00; Su 08:00-16:00",
        "operator": "EnCicla"
      },
      "geometry": {
        "type": "Point",
        "coordinates": [
          -75.5655274,
          6.2493809
        ]
      },
      "id": "node/11435772661"
    },
    {
      "type": "Feature",
      "properties": {
        "@id": "node/11435779380",
        "addr:full": "CARRERA 51 #51-47",
        "amenity": "bicycle_rental",
        "brand": "EnCicla",
        "brand:wikidata": "Q18644128",
        "description": "Diagonal al Palacio de la Cultura. Bajos estación P. Berrio. entrada Norte",
        "name": "Estación EnCicla Palacio de la Cultura",
        "opening_hours": "Mo-Fr 05:30-22:00; Sa 06:30-21:00; Su 08:00-16:00",
        "operator": "EnCicla"
      },
      "geometry": {
        "type": "Point",
        "coordinates": [
          -75.5682766,
          6.2507509
        ]
      },
      "id": "node/11435779380"
    },
    {
      "type": "Feature",
      "properties": {
        "@id": "node/11455481726",
        "amenity": "bicycle_rental",
        "bicycle_rental": "docking_station",
        "brand": "EnCicla",
        "brand:wikidata": "Q18644128",
        "description": "Ubicada en la calle 49, al costado sur de la Parroquia San Pedro y San Pablo.",
        "name": "Estación EnCicla Iglesia San Pedro y San Pablo",
        "opening_hours": "Mo-Fr 05:30-22:00; Sa 06:30-21:00; Su 08:00-16:00",
        "operator": "EnCicla"
      },
      "geometry": {
        "type": "Point",
        "coordinates": [
          -75.5956101,
          6.2604756
        ]
      },
      "id": "node/11455481726"
    },
    {
      "type": "Feature",
      "properties": {
        "@id": "node/11455524980",
        "amenity": "bicycle_rental",
        "bicycle_rental": "docking_station",
        "brand": "EnCicla",
        "brand:wikidata": "Q18644128",
        "description": "Ubicada entre la calle 52A con carrera 78B, costado occidental del parque de los perros.",
        "name": "Estación EnCicla Las Piedritas",
        "opening_hours": "Mo-Fr 05:30-22:00; Sa 06:30-21:00; Su 08:00-16:00",
        "operator": "EnCicla"
      },
      "geometry": {
        "type": "Point",
        "coordinates": [
          -75.5942678,
          6.26508
        ]
      },
      "id": "node/11455524980"
    },
    {
      "type": "Feature",
      "properties": {
        "@id": "node/11455524981",
        "amenity": "bicycle_rental",
        "bicycle_rental": "docking_station",
        "brand": "EnCicla",
        "brand:wikidata": "Q18644128",
        "description": "Ubicada en el parque de los colores, laureles, junto a la cancha cuatro vientos.",
        "name": "Estación EnCicla Cuatro Vientos",
        "opening_hours": "Mo-Fr 05:30-22:00; Sa 06:30-21:00; Su 08:00-16:00",
        "operator": "EnCicla"
      },
      "geometry": {
        "type": "Point",
        "coordinates": [
          -75.5919629,
          6.2680122
        ]
      },
      "id": "node/11455524981"
    },
    {
      "type": "Feature",
      "properties": {
        "@id": "node/11458251426",
        "amenity": "bicycle_rental",
        "bicycle_rental": "docking_station",
        "brand": "EnCicla",
        "brand:wikidata": "Q18644128",
        "description": "Ubicada en la calle 32E, al norte del Parque Belén Malibú .",
        "name": "Estación EnCicla Parque Malibú",
        "opening_hours": "Mo-Fr 05:30-22:00; Sa 06:30-21:00; Su 08:00-16:00",
        "operator": "EnCicla"
      },
      "geometry": {
        "type": "Point",
        "coordinates": [
          -75.5892534,
          6.2378053
        ]
      },
      "id": "node/11458251426"
    },
    {
      "type": "Feature",
      "properties": {
        "@id": "node/11458251427",
        "amenity": "bicycle_rental",
        "bicycle_rental": "docking_station",
        "brand": "EnCicla",
        "brand:wikidata": "Q18644128",
        "description": "Ubicada en la carrera 45, junto al parqueadero de la Parroquia Santa Maria de los Dolores.",
        "name": "Estación EnCicla Parque la Bailarina",
        "opening_hours": "Mo-Fr 05:30-22:00; Sa 06:30-21:00; Su 08:00-16:00",
        "operator": "EnCicla"
      },
      "geometry": {
        "type": "Point",
        "coordinates": [
          -75.5747579,
          6.2093918
        ]
      },
      "id": "node/11458251427"
    },
    {
      "type": "Feature",
      "properties": {
        "@id": "node/11458251428",
        "amenity": "bicycle_rental",
        "bicycle_rental": "docking_station",
        "brand": "EnCicla",
        "brand:wikidata": "Q18644128",
        "description": "Ubicada a dos cuadras y media del Exito de colombia hacia el estadio, subiendo por la calle 49B.",
        "name": "Estación EnCicla Parque de los Enamorados",
        "opening_hours": "Mo-Fr 05:30-22:00; Sa 06:30-21:00; Su 08:00-16:00",
        "operator": "EnCicla"
      },
      "geometry": {
        "type": "Point",
        "coordinates": [
          -75.5843216,
          6.2569989
        ]
      },
      "id": "node/11458251428"
    },
    {
      "type": "Feature",
      "properties": {
        "@id": "node/11458251429",
        "amenity": "bicycle_rental",
        "bicycle_rental": "docking_station",
        "brand": "EnCicla",
        "brand:wikidata": "Q18644128",
        "description": "Portería UPB de la Circular 1era con Av. Nutibara. Frente al periódico El Tiempo.",
        "name": "Estación EnCicla Circular Primera",
        "opening_hours": "Mo-Fr 05:30-22:00; Sa 06:30-21:00; Su 08:00-16:00",
        "operator": "EnCicla"
      },
      "geometry": {
        "type": "Point",
        "coordinates": [
          -75.5919598,
          6.2418132
        ]
      },
      "id": "node/11458251429"
    },
    {
      "type": "Feature",
      "properties": {
        "@id": "node/11458328262",
        "amenity": "bicycle_rental",
        "bicycle_rental": "docking_station",
        "brand": "EnCicla",
        "brand:wikidata": "Q18644128",
        "description": "Posterior al Hospital General de Medellín.",
        "name": "Estación EnCicla Distrito Creativo",
        "opening_hours": "Mo-Fr 05:30-22:00; Sa 06:30-21:00; Su 08:00-16:00",
        "operator": "EnCicla"
      },
      "geometry": {
        "type": "Point",
        "coordinates": [
          -75.571916,
          6.2346887
        ]
      },
      "id": "node/11458328262"
    },
    {
      "type": "Feature",
      "properties": {
        "@id": "node/11458328263",
        "amenity": "bicycle_rental",
        "bicycle_rental": "docking_station",
        "brand": "EnCicla",
        "brand:wikidata": "Q18644128",
        "description": "Plazuela al frente de la Iglesia del Perpetuo Socorro.",
        "name": "Estación EnCicla Palacé",
        "opening_hours": "Mo-Fr 05:30-22:00; Sa 06:30-21:00; Su 08:00-16:00",
        "operator": "EnCicla"
      },
      "geometry": {
        "type": "Point",
        "coordinates": [
          -75.5736117,
          6.2363788
        ]
      },
      "id": "node/11458328263"
    },
    {
      "type": "Feature",
      "properties": {
        "@id": "node/11458328264",
        "amenity": "bicycle_rental",
        "brand": "EnCicla",
        "brand:wikidata": "Q18644128",
        "description": "Costado sur de Plaza Mayor sobre la Avenida Ferrocarril, salida puente peatonal de Metroplús.",
        "name": "Estación EnCicla Plaza Mayor",
        "opening_hours": "Mo-Fr 05:30-22:00; Sa 06:30-21:00; Su 08:00-16:00",
        "operator": "EnCicla"
      },
      "geometry": {
        "type": "Point",
        "coordinates": [
          -75.5758897,
          6.2423436
        ]
      },
      "id": "node/11458328264"
    },
    {
      "type": "Feature",
      "properties": {
        "@id": "node/11458328266",
        "amenity": "bicycle_rental",
        "bicycle_rental": "docking_station",
        "brand": "EnCicla",
        "brand:wikidata": "Q18644128",
        "description": "Ubicada sobre la calle 42 con Carabobo al costado sur de la Dian.",
        "name": "Estación EnCicla Dian Alpujarra",
        "opening_hours": "Mo-Fr 05:30-22:00; Sa 06:30-21:00; Su 08:00-16:00",
        "operator": "EnCicla"
      },
      "geometry": {
        "type": "Point",
        "coordinates": [
          -75.5722275,
          6.2433419
        ]
      },
      "id": "node/11458328266"
    },
    {
      "type": "Feature",
      "properties": {
        "@id": "node/11460963092",
        "amenity": "bicycle_rental",
        "bicycle_rental": "docking_station",
        "brand": "EnCicla",
        "brand:wikidata": "Q18644128",
        "name": "Estación EnCicla Vegas calle 4 Sur",
        "opening_hours": "Mo-Fr 05:30-22:00; Sa 06:30-21:00; Su 08:00-16:00",
        "operator": "EnCicla"
      },
      "geometry": {
        "type": "Point",
        "coordinates": [
          -75.5774011,
          6.203287
        ]
      },
      "id": "node/11460963092"
    },
    {
      "type": "Feature",
      "properties": {
        "@id": "node/11461085971",
        "amenity": "bicycle_rental",
        "bicycle_rental": "docking_station",
        "brand": "EnCicla",
        "brand:wikidata": "Q18644128",
        "description": "Contigua a la cancha Campo Amor, cercana a la Institución Educativa La Salle de Campoamor.",
        "name": "Estación EnCicla Campo Amor",
        "opening_hours": "Mo-Fr 05:30-22:00; Sa 06:30-21:00; Su 08:00-16:00",
        "operator": "EnCicla"
      },
      "geometry": {
        "type": "Point",
        "coordinates": [
          -75.5878718,
          6.2130836
        ]
      },
      "id": "node/11461085971"
    }
  ]
}